[{"model": "legitbase.hkdistrict", "pk": "CW", "fields": {"name": "Central and Western", "name_zh": "\u4e2d\u897f\u5340", "region": "HK"}}, {"model": "legitbase.hkdistrict", "pk": "EST", "fields": {"name": "Eastern", "name_zh": "\u6771\u5340", "region": "HK"}}, {"model": "legitbase.hkdistrict", "pk": "ILD", "fields": {"name": "Islands", "name_zh": "\u96e2\u5cf6\u5340", "region": "NT"}}, {"model": "legitbase.hkdistrict", "pk": "KC", "fields": {"name": "Kwai Ching", "name_zh": "\u8475\u9752\u5340", "region": "NT"}}, {"model": "legitbase.hkdistrict", "pk": "KLC", "fields": {"name": "Kowloon City", "name_zh": "\u4e5d\u9f8d\u57ce\u5340", "region": "KLN"}}, {"model": "legitbase.hkdistrict", "pk": "KT", "fields": {"name": "Kwun Tong", "name_zh": "\u89c0\u5858\u5340", "region": "KLN"}}, {"model": "legitbase.hkdistrict", "pk": "NTH", "fields": {"name": "North", "name_zh": "\u5317\u5340", "region": "NT"}}, {"model": "legitbase.hkdistrict", "pk": "SK", "fields": {"name": "Sai Kung", "name_zh": "\u897f\u8ca2\u5340", "region": "NT"}}, {"model": "legitbase.hkdistrict", "pk": "SSP", "fields": {"name": "Sham Shui Po", "name_zh": "\u6df1\u6c34\u57d7\u5340", "region": "KLN"}}, {"model": "legitbase.hkdistrict", "pk": "ST", "fields": {"name": "Sha Tin", "name_zh": "\u6c99\u7530\u5340", "region": "NT"}}, {"model": "legitbase.hkdistrict", "pk": "STH", "fields": {"name": "Southern", "name_zh": "\u5357\u5340", "region": "HK"}}, {"model": "legitbase.hkdistrict", "pk": "TM", "fields": {"name": "Tuen Mun", "name_zh": "\u5c6f\u9580\u5340", "region": "NT"}}, {"model": "legitbase.hkdistrict", "pk": "TP", "fields": {"name": "Tai Po", "name_zh": "\u5927\u57d4\u5340", "region": "NT"}}, {"model": "legitbase.hkdistrict", "pk": "TW", "fields": {"name": "Tsuen Wan", "name_zh": "\u8343\u7063\u5340", "region": "NT"}}, {"model": "legitbase.hkdistrict", "pk": "WC", "fields": {"name": "Wan Chai", "name_zh": "\u7063\u4ed4\u5340", "region": "HK"}}, {"model": "legitbase.hkdistrict", "pk": "WTS", "fields": {"name": "Wong Tai Sin", "name_zh": "\u9ec3\u5927\u4ed9\u5340", "region": "KLN"}}, {"model": "legitbase.hkdistrict", "pk": "YL", "fields": {"name": "Yuen Long", "name_zh": "\u5143\u6717\u5340", "region": "NT"}}, {"model": "legitbase.hkdistrict", "pk": "YTM", "fields": {"name": "Yau Tsim Mong", "name_zh": "\u6cb9\u5c16\u65fa\u5340", "region": "KLN"}}]