[{"model": "legitbase.language", "pk": "cant1236", "fields": {"iso639_3": "yue", "name": "Cantonese", "name_zh": "\u5ee3\u6771\u8a71"}}, {"model": "legitbase.language", "pk": "chao1238", "fields": {"iso639_3": "nan", "name": "Teochew", "name_zh": "\u6f6e\u6d32\u8a71"}}, {"model": "legitbase.language", "pk": "fili1244", "fields": {"iso639_3": "fil", "name": "Filipino", "name_zh": "\u83f2\u5f8b\u8cd3\u8a9e"}}, {"model": "legitbase.language", "pk": "hakk1236", "fields": {"iso639_3": "hak", "name": "Hakka", "name_zh": "\u5ba2\u5bb6\u8a71"}}, {"model": "legitbase.language", "pk": "hind1269", "fields": {"iso639_3": "hin", "name": "Hindi", "name_zh": "\u5370\u5730\u8a9e"}}, {"model": "legitbase.language", "pk": "indo1316", "fields": {"iso639_3": "ind", "name": "Indonesian", "name_zh": "\u5370\u5c3c\u8a9e"}}, {"model": "legitbase.language", "pk": "mand1415", "fields": {"iso639_3": "cmn", "name": "Mandarin", "name_zh": "\u666e\u901a\u8a71"}}, {"model": "legitbase.language", "pk": "stan1293", "fields": {"iso639_3": "eng", "name": "English", "name_zh": "\u82f1\u6587"}}, {"model": "legitbase.language", "pk": "urdu1245", "fields": {"iso639_3": "urd", "name": "Urdu", "name_zh": "\u70cf\u723e\u90fd\u8a9e"}}, {"model": "legitbase.language", "pk": "wuch1236", "fields": {"iso639_3": "wuu", "name": "Wu Chinese", "name_zh": "\u70cf\u8a9e"}}, {"model": "legitbase.language", "pk": "xiam1236", "fields": {"iso639_3": "nan", "name": "Hokkien", "name_zh": "\u798f\u5efa\u8a71"}}]